EUTELSAT 8 WEST B       
1 40875U 15039B   25292.26567054 -.00000068  00000+0  00000+0 0  9990
2 40875   0.0705  15.4282 0003866 195.5345 264.6793  1.00271797 37242
EUTELSAT 9B             
1 41310U 16005A   25292.26905056  .00000059  00000+0  00000+0 0  9996
2 41310   0.0603  62.0460 0003719 178.6309 253.1885  1.00270895 35701
EUTELSAT 65 WEST A      
1 41382U 16014A   25292.25440382 -.00000279  00000+0  00000+0 0  9995
2 41382   0.0960  54.7100 0002225 160.1893 199.4823  1.00270135 35116
EUTELSAT 117 WEST B     
1 41589U 16038B   25292.02993616 -.00000016  00000+0  00000+0 0  9997
2 41589   0.0117  76.4647 0000185  53.5068 151.5896  1.00274053 34243
EUTELSAT 172B           
1 42741U 17029B   25292.23005038 -.00000008  00000+0  00000+0 0  9995
2 42741   0.0184 175.0450 0000132 207.8513 259.8811  1.00271951 31315
EUTELSAT 7C             
1 44334U 19034B   25292.26870389  .00000046  00000+0  00000+0 0  9996
2 44334   0.0653 184.7419 0003131   6.3649 300.6327  1.00271341  4424
EUTELSAT 5 WEST B       
1 44624U 19067A   25292.19495022 -.00000044  00000+0  00000+0 0  9992
2 44624   0.0755  31.8361 0003190 180.4741 240.8084  1.00272534 22025
EUTELSAT KONNECT        
1 45027U 20005B   25292.19737690  .00000047  00000+0  00000+0 0  9996
2 45027   0.0705  90.2278 0001582 147.7453 228.2172  1.00270275 21918
